{"type": "FeatureCollection", "features": [ {"type": "Feature", "properties": {"norad_id": 36402, "name": "COSMOS 2460 (732)", "group": "gnss", "lat": -30.965788315505847, "lon": -55.523038631522354, "alt_km": 19128.952812707437, "timestamp": "2025-12-25T11:37:44.677601+00:00", "meta": {"OBJECT_NAME": "COSMOS 2460 (732)", "OBJECT_ID": "2010-007C", "EPOCH": "2025-12-25T05:13:15.714336", "MEAN_MOTION": 2.13106358, "ECCENTRICITY": 0.0002488, "INCLINATION": 65.5229, "RA_OF_ASC_NODE": 320.3522, "ARG_OF_PERICENTER": 284.3328, "MEAN_ANOMALY": 196.3838, "EPHEMERIS_TYPE": 0, "CLASSIFICATION_TYPE": "U", "NORAD_CAT_ID": 36402, "ELEMENT_SET_NO": 999, "REV_AT_EPOCH": 12302, "BSTAR": 0, "MEAN_MOTION_DOT": -3.2e-07, "MEAN_MOTION_DDOT": 0}, "tle": {"line1": "1 36402U 10007C   25359.21754299 -.00000032  00000+0  00000+0 0  9990", "line2": "2 36402  65.5229 320.3522 0002488 284.3328 196.3838  2.13106358123020"}}, "geometry": {"type": "Point", "coordinates": [-55.523038631522354, -30.965788315505847]}}, {"type": "Feature", "properties": {"norad_id": 36585, "name": "GPS BIIF-1  (PRN 25)", "group": "gnss", "lat": 19.962682021656157, "lon": -129.28790218097654, "alt_km": 19922.430593217356, "timestamp": "2025-12-25T11:37:44.677613+00:00", "meta": {"OBJECT_NAME": "GPS BIIF-1  (PRN 25)", "OBJECT_ID": "2010-022A", "EPOCH": "2025-12-25T02:37:13.768032", "MEAN_MOTION": 2.005538, "ECCENTRICITY": 0.0126581, "INCLINATION": 54.2983, "RA_OF_ASC_NODE": 215.575, "ARG_OF_PERICENTER": 65.232, "MEAN_ANOMALY": 49.6235, "EPHEMERIS_TYPE": 0, "CLASSIFICATION_TYPE": "U", "NORAD_CAT_ID": 36585, "ELEMENT_SET_NO": 999, "REV_AT_EPOCH": 11410, "BSTAR": 0, "MEAN_MOTION_DOT": 7.6e-07, "MEAN_MOTION_DDOT": 0}, "tle": {"line1": "1 36585U 10022A   25359.10918713  .00000076  00000+0  00000+0 0  9997", "line2": "2 36585  54.2983 215.5750 0126581  65.2320  49.6235  2.00553800114105"}}, "geometry": {"type": "Point", "coordinates": [-129.28790218097654, 19.962682021656157]}}, {"type": "Feature", "properties": {"norad_id": 36828, "name": "BEIDOU-2 IGSO-1 (C06)", "group": "gnss", "lat": -25.664710830235148, "lon": 4.757940151687861, "alt_km": 35569.379607935334, "timestamp": "2025-12-25T11:37:44.677625+00:00", "meta": {"OBJECT_NAME": "BEIDOU-2 IGSO-1 (C06)", "OBJECT_ID": "2010-036A", "EPOCH": "2025-12-20T21:47:26.739168", "MEAN_MOTION": 1.00282395, "ECCENTRICITY": 0.0051798, "INCLINATION": 54.2882, "RA_OF_ASC_NODE": 164.5739, "ARG_OF_PERICENTER": 215.2932, "MEAN_ANOMALY": 144.6604, "EPHEMERIS_TYPE": 0, "CLASSIFICATION_TYPE": "U", "NORAD_CAT_ID": 36828, "ELEMENT_SET_NO": 999, "REV_AT_EPOCH": 5631, "BSTAR": 0, "MEAN_MOTION_DOT": -5.5e-07, "MEAN_MOTION_DDOT": 0}, "tle": {"line1": "1 36828U 10036A   25354.90794837 -.00000055  00000+0  00000+0 0  9992", "line2": "2 36828  54.2882 164.5739 0051798 215.2932 144.6604  1.00282395 56317"}}, "geometry": {"type": "Point", "coordinates": [4.757940151687861, -25.664710830235148]}}, {"type": "Feature", "properties": {"norad_id": 37210, "name": "BEIDOU-2 G4 (C04)", "group": "gnss", "lat": -0.046924636113443476, "lon": 68.79086639230034, "alt_km": 35828.73455620053, "timestamp": "2025-12-25T11:37:44.677638+00:00", "meta": {"OBJECT_NAME": "BEIDOU-2 G4 (C04)", "OBJECT_ID": "2010-057A", "EPOCH": "2025-12-25T01:13:31.928736", "MEAN_MOTION": 1.00271513, "ECCENTRICITY": 0.0010416, "INCLINATION": 3.2131, "RA_OF_ASC_NODE": 69.8914, "ARG_OF_PERICENTER": 193.9185, "MEAN_ANOMALY": 8.4739, "EPHEMERIS_TYPE": 0, "CLASSIFICATION_TYPE": "U", "NORAD_CAT_ID": 37210, "ELEMENT_SET_NO": 999, "REV_AT_EPOCH": 5554, "BSTAR": 0, "MEAN_MOTION_DOT": -9.1e-07, "MEAN_MOTION_DDOT": 0}, "tle": {"line1": "1 37210U 10057A   25359.05106399 -.00000091  00000+0  00000+0 0  9992", "line2": "2 37210   3.2131  69.8914 0010416 193.9185   8.4739  1.00271513 55540"}}, "geometry": {"type": "Point", "coordinates": [68.79086639230034, -0.046924636113443476]}}, {"type": "Feature", "properties": {"norad_id": 37256, "name": "BEIDOU-2 IGSO-2 (C07)", "group": "gnss", "lat": 46.481842862767735, "lon": 21.88011876256441, "alt_km": 35860.06957505201, "timestamp": "2025-12-25T11:37:44.677650+00:00", "meta": {"OBJECT_NAME": "BEIDOU-2 IGSO-2 (C07)", "OBJECT_ID": "2010-068A", "EPOCH": "2025-12-24T17:01:55.972704", "MEAN_MOTION": 1.00282798, "ECCENTRICITY": 0.0048511, "INCLINATION": 47.864, "RA_OF_ASC_NODE": 274.0027, "ARG_OF_PERICENTER": 216.2647, "MEAN_ANOMALY": 326.7558, "EPHEMERIS_TYPE": 0, "CLASSIFICATION_TYPE": "U", "NORAD_CAT_ID": 37256, "ELEMENT_SET_NO": 999, "REV_AT_EPOCH": 5504, "BSTAR": 0, "MEAN_MOTION_DOT": -1.92e-06, "MEAN_MOTION_DDOT": 0}, "tle": {"line1": "1 37256U 10068A   25358.70967561 -.00000192  00000+0  00000+0 0  9993", "line2": "2 37256  47.8640 274.0027 0048511 216.2647 326.7558  1.00282798 55040"}}, "geometry": {"type": "Point", "coordinates": [21.88011876256441, 46.481842862767735]}}, {"type": "Feature", "properties": {"norad_id": 37384, "name": "BEIDOU-2 IGSO-3 (C08)", "group": "gnss", "lat": -22.594818248341152, "lon": 29.12603197520828, "alt_km": 35914.08659833417, "timestamp": "2025-12-25T11:37:44.677662+00:00", "meta": {"OBJECT_NAME": "BEIDOU-2 IGSO-3 (C08)", "OBJECT_ID": "2011-013A", "EPOCH": "2025-12-24T13:36:08.179776", "MEAN_MOTION": 1.00268125, "ECCENTRICITY": 0.00352821, "INCLINATION": 62.1584, "RA_OF_ASC_NODE": 41.8043, "ARG_OF_PERICENTER": 187.8377, "MEAN_ANOMALY": 174.9924, "EPHEMERIS_TYPE": 0, "CLASSIFICATION_TYPE": "U", "NORAD_CAT_ID": 37384, "ELEMENT_SET_NO": 999, "REV_AT_EPOCH": 5391, "BSTAR": 0, "MEAN_MOTION_DOT": -1.63e-06, "MEAN_MOTION_DDOT": 0}, "tle": {"line1": "1 37384U 11013A   25358.56676134 -.00000163  00000+0  00000+0 0  9991", "line2": "2 37384  62.1584  41.8043 0035282 187.8377 174.9924  1.00268125 53913"}}, "geometry": {"type": "Point", "coordinates": [29.12603197520828, -22.594818248341152]}}, {"type": "Feature", "properties": {"norad_id": 37605, "name": "GSAT-8 (GAGAN/PRN 127)", "group": "gnss", "lat": -1.4680117514080573, "lon": -36.18481694722254, "alt_km": 35763.5388780191, "timestamp": "2025-12-25T11:37:44.677674+00:00", "meta": {"OBJECT_NAME": "GSAT-8 (GAGAN/PRN 127)", "OBJECT_ID": "2011-022A", "EPOCH": "2025-12-25T01:20:23.235072", "MEAN_MOTION": 1.00271536, "ECCENTRICITY": 0.0008997, "INCLINATION": 1.6797, "RA_OF_ASC_NODE": 84.0649, "ARG_OF_PERICENTER": 186.3622, "MEAN_ANOMALY": 258.5588, "EPHEMERIS_TYPE": 0, "CLASSIFICATION_TYPE": "U", "NORAD_CAT_ID": 37605, "ELEMENT_SET_NO": 999, "REV_AT_EPOCH": 5147, "BSTAR": 0, "MEAN_MOTION_DOT": 1.05e-06, "MEAN_MOTION_DDOT": 0}, "tle": {"line1": "1 37605U 11022A   25359.05582448  .00000105  00000+0  00000+0 0  9991", "line2": "2 37605   1.6797  84.0649 0008997 186.3622 258.5588  1.00271536 51478"}}, "geometry": {"type": "Point", "coordinates": [-36.18481694722254, -1.4680117514080573]}}, {"type": "Feature", "properties": {"norad_id": 37763, "name": "BEIDOU-2 IGSO-4 (C09)", "group": "gnss", "lat": -12.390166823074061, "lon": -3.777855830070533, "alt_km": 35267.392285014655, "timestamp": "2025-12-25T11:37:44.677688+00:00", "meta": {"OBJECT_NAME": "BEIDOU-2 IGSO-4 (C09)", "OBJECT_ID": "2011-038A", "EPOCH": "2025-12-21T10:06:26.864064", "MEAN_MOTION": 1.00280083, "ECCENTRICITY": 0.01491557, "INCLINATION": 54.5854, "RA_OF_ASC_NODE": 167.2693, "ARG_OF_PERICENTER": 230.0944, "MEAN_ANOMALY": 299.1265, "EPHEMERIS_TYPE": 0, "CLASSIFICATION_TYPE": "U", "NORAD_CAT_ID": 37763, "ELEMENT_SET_NO": 999, "REV_AT_EPOCH": 5286, "BSTAR": 0, "MEAN_MOTION_DOT": 5.9e-07, "MEAN_MOTION_DDOT": 0}, "tle": {"line1": "1 37763U 11038A   25355.42114426  .00000059  00000+0  00000+0 0  9995", "line2": "2 37763  54.5854 167.2693 0149155 230.0944 299.1265  1.00280083 52867"}}, "geometry": {"type": "Point", "coordinates": [-3.777855830070533, -12.390166823074061]}}, {"type": "Feature", "properties": {"norad_id": 37846, "name": "GSAT0101 (GALILEO-PFM)", "group": "gnss", "lat": 14.300098023517444, "lon": 156.94800413765327, "alt_km": 23229.369984960373, "timestamp": "2025-12-25T11:37:44.677702+00:00", "meta": {"OBJECT_NAME": "GSAT0101 (GALILEO-PFM)", "OBJECT_ID": "2011-060A", "EPOCH": "2025-12-24T15:10:54.849792", "MEAN_MOTION": 1.70475643, "ECCENTRICITY": 0.0003261, "INCLINATION": 57.05, "RA_OF_ASC_NODE": 346.4975, "ARG_OF_PERICENTER": 321.0017, "MEAN_ANOMALY": 38.9828, "EPHEMERIS_TYPE": 0, "CLASSIFICATION_TYPE": "U", "NORAD_CAT_ID": 37846, "ELEMENT_SET_NO": 999, "REV_AT_EPOCH": 8814, "BSTAR": 0, "MEAN_MOTION_DOT": -6.1e-07, "MEAN_MOTION_DDOT": 0}, "tle": {"line1": "1 37846U 11060A   25358.63257928 -.00000061  00000+0  00000+0 0  9997", "line2": "2 37846  57.0500 346.4975 0003261 321.0017  38.9828  1.70475643 88147"}}, "geometry": {"type": "Point", "coordinates": [156.94800413765327, 14.300098023517444]}}, {"type": "Feature", "properties": {"norad_id": 37847, "name": "GSAT0102 (GALILEO-FM2)", "group": "gnss", "lat": -23.44751732326614, "lon": -177.20015157543924, "alt_km": 23229.001426928924, "timestamp": "2025-12-25T11:37:44.677713+00:00", "meta": {"OBJECT_NAME": "GSAT0102 (GALILEO-FM2)", "OBJECT_ID": "2011-060B", "EPOCH": "2025-12-22T11:58:40.586304", "MEAN_MOTION": 1.70475957, "ECCENTRICITY": 0.00051595, "INCLINATION": 57.0512, "RA_OF_ASC_NODE": 346.5558, "ARG_OF_PERICENTER": 313.0615, "MEAN_ANOMALY": 223.0229, "EPHEMERIS_TYPE": 0, "CLASSIFICATION_TYPE": "U", "NORAD_CAT_ID": 37847, "ELEMENT_SET_NO": 999, "REV_AT_EPOCH": 8811, "BSTAR": 0, "MEAN_MOTION_DOT": -6.5e-07, "MEAN_MOTION_DDOT": 0}, "tle": {"line1": "1 37847U 11060B   25356.49908086 -.00000065  00000+0  00000+0 0  9992", "line2": "2 37847  57.0512 346.5558 0005159 313.0615 223.0229  1.70475957 88119"}}, "geometry": {"type": "Point", "coordinates": [-177.20015157543924, -23.44751732326614]}}]}